NORAD_CAT_ID,OBJECT_NAME,OBJECT_TYPE,EPOCH,MEAN_MOTION,ECCENTRICITY,INCLINATION,RA_OF_ASC_NODE,ARG_OF_PERICENTER,MEAN_ANOMALY,BSTAR,MEAN_MOTION_DOT,MEAN_MOTION_DDOT,TLE_LINE0,TLE_LINE1,TLE_LINE2,SEMIMAJOR_AXIS,PERIOD,APOGEE,PERIGEE,DECAYED
56814.0,STARLINK-6059,PAYLOAD,2024-07-21 23:49:00,14.98333713,0.0002921,70.0001,46.2931,270.0615,90.0209,3.5146e-05,3.26e-06,0.0,0 STARLINK-6059,1 56814U 23078AZ  24203.99236816  .00000326  00000-0  35146-4 0  9993,2 56814  70.0001  46.2931 0002921 270.0615  90.0209 14.98333713 63454,6950.181,96.107,574.077,570.016,0.0
56814.0,STARLINK-6059,PAYLOAD,2024-07-22 22:14:52,14.98394482,0.0003137,70.0006,43.9362,274.1757,85.9044,-0.0010028,-0.00012058,0.0,0 STARLINK-6059,1 56814U 23078AZ  24204.92699088 -.00012058  00000-0 -10028-2 0  9998,2 56814  70.0006  43.9362 0003137 274.1757  85.9044 14.98394482 63598,6949.993,96.103,574.039,569.678,0.0
56814.0,STARLINK-6059,PAYLOAD,2024-07-22 23:51:01,14.98322276,0.0002834,70.0007,43.7679,272.9592,87.1243,0.00028744,3.338e-05,0.0,0 STARLINK-6059,1 56814U 23078AZ  24204.99376858  .00003338  00000-0  28744-3 0  9996,2 56814  70.0007  43.7679 0002834 272.9592  87.1243 14.98322276 63861,6950.217,96.107,574.051,570.112,0.0
56814.0,STARLINK-6059,PAYLOAD,2024-07-23 22:16:54,14.98328235,0.0002995,70.0002,41.4125,267.2568,92.8248,-5.781e-06,-1.62e-06,0.0,0 STARLINK-6059,1 56814U 23078AZ  24205.92840991 -.00000162  00000-0 -57810-5 0  9996,2 56814  70.0002  41.4125 0002995 267.2568  92.8248 14.98328235 63741,6950.198,96.107,574.145,569.982,0.0
56814.0,STARLINK-6059,PAYLOAD,2024-07-24 12:42:07,14.9832906,0.0002937,70.0,39.8969,270.8585,89.2237,1.1466e-06,-7.9e-07,0.0,0 STARLINK-6059,1 56814U 23078AZ  24206.52924999 -.00000079  00000-0  11466-5 0  9997,2 56814  70.0000  39.8969 0002937 270.8585  89.2237 14.98329060 64095,6950.196,96.107,574.102,570.02,0.0
56814.0,STARLINK-6059,PAYLOAD,2024-07-24 22:18:55,14.98329803,0.0002981,70.0004,38.8891,268.0611,92.0207,5.7958e-05,5.99e-06,0.0,0 STARLINK-6059,1 56814U 23078AZ  24206.92980671  .00000599  00000-0  57958-4 0  9991,2 56814  70.0004  38.8891 0002981 268.0611  92.0207 14.98329803 63891,6950.194,96.107,574.13,569.987,0.0
56814.0,STARLINK-6059,PAYLOAD,2024-07-25 12:44:08,14.98329226,0.0002902,70.0002,37.3722,269.4873,90.5954,-8.864e-06,-1.99e-06,0.0,0 STARLINK-6059,1 56814U 23078AZ  24207.53064913 -.00000199  00000-0 -88640-5 0  9992,2 56814  70.0002  37.3722 0002902 269.4873  90.5954 14.98329226 64245,6950.195,96.107,574.077,570.043,0.0
56814.0,STARLINK-6059,PAYLOAD,2024-07-25 22:20:56,14.98328397,0.0002878,69.9975,36.3628,269.3171,90.7659,1.8043e-05,1.22e-06,0.0,0 STARLINK-6059,1 56814U 23078AZ  24207.93120981  .00000122  00000-0  18043-4 0  9997,2 56814  69.9975  36.3628 0002878 269.3171  90.7659 14.98328397 64047,6950.198,96.107,574.063,570.063,0.0
56814.0,STARLINK-6059,PAYLOAD,2024-07-26 06:21:36,14.98330069,0.0002979,69.9982,35.5194,266.3082,93.7736,3.6554e-05,3.43e-06,0.0,0 STARLINK-6059,1 56814U 23078AZ  24208.26500770  .00000343  00000-0  36554-4 0  9994,2 56814  69.9982  35.5194 0002979 266.3082  93.7736 14.98330069 64097,6950.193,96.107,574.128,569.987,0.0
56814.0,STARLINK-6059,PAYLOAD,2024-07-26 19:10:41,14.98328984,0.0002969,69.9981,34.173,266.4741,93.6079,1.3132e-05,6.4e-07,0.0,0 STARLINK-6059,1 56814U 23078AZ  24208.79908937  .00000064  00000-0  13132-4 0  9996,2 56814  69.9981  34.1730 0002969 266.4741  93.6079 14.98328984 64439,6950.196,96.107,574.125,569.998,0.0
56814.0,STARLINK-6059,PAYLOAD,2024-07-27 22:24:57,14.98337493,0.0003091,70.002,31.3119,267.957,92.1235,9.0959e-05,9.93e-06,0.0,0 STARLINK-6059,1 56814U 23078AZ  24209.93400123  .00000993  00000-0  90959-4 0  9990,2 56814  70.0020  31.3119 0003091 267.9570  92.1235 14.98337493 64342,6950.17,96.107,574.183,569.886,0.0
56814.0,STARLINK-6059,PAYLOAD,2024-07-28 04:49:30,14.98326893,0.0002876,70.0039,30.6387,268.449,91.634,0.00017855,2.038e-05,0.0,0 STARLINK-6059,1 56814U 23078AZ  24210.20104593  .00002038  00000-0  17855-3 0  9999,2 56814  70.0039  30.6387 0002876 268.4490  91.6340 14.98326893 64644,6950.202,96.107,574.066,570.069,0.0
56814.0,STARLINK-6059,PAYLOAD,2024-07-28 22:26:58,14.98332648,0.0003018,70.0008,28.7881,264.8357,95.2457,1.5681e-05,9.4e-07,0.0,0 STARLINK-6059,1 56814U 23078AZ  24210.93540463  .00000094  00000-0  15681-4 0  9995,2 56814  70.0008  28.7881 0003018 264.8357  95.2457 14.98332648 64495,6950.185,96.107,574.147,569.952,0.0
56814.0,STARLINK-6059,PAYLOAD,2024-07-29 04:51:31,14.98321871,0.0002872,70.0009,28.1136,270.176,89.907,0.00017689,2.018e-05,0.0,0 STARLINK-6059,1 56814U 23078AZ  24211.20244819  .00002018  00000-0  17689-3 0  9999,2 56814  70.0009  28.1136 0002872 270.1760  89.9070 14.98321871 64798,6950.218,96.108,574.079,570.087,0.0
56814.0,STARLINK-6059,PAYLOAD,2024-07-29 20:52:51,14.98333854,0.0002967,70.0009,26.4304,269.5074,90.5745,-3.959e-05,-5.65e-06,0.0,0 STARLINK-6059,1 56814U 23078AZ  24211.87004458 -.00000565  00000-0 -39590-4 0  9998,2 56814  70.0009  26.4304 0002967 269.5074  90.5745 14.98333854 64893,6950.181,96.107,574.108,569.984,0.0
56814.0,STARLINK-6059,PAYLOAD,2024-07-30 04:53:32,14.98333493,0.0002963,70.0009,25.5887,269.617,90.465,-3.7934e-05,-5.46e-06,0.0,0 STARLINK-6059,1 56814U 23078AZ  24212.20384404 -.00000546  00000-0 -37934-4 0  9997,2 56814  70.0009  25.5887 0002963 269.6170  90.4650 14.98333493 64683,6950.182,96.107,574.106,569.988,0.0
56814.0,STARLINK-6059,PAYLOAD,2024-07-30 20:54:52,14.9833138,0.000301,70.0007,23.9051,269.7017,90.3797,3.6143e-05,3.38e-06,0.0,0 STARLINK-6059,1 56814U 23078AZ  24212.87144279  .00000338  00000-0  36143-4 0  9992,2 56814  70.0007  23.9051 0003010 269.7017  90.3797 14.98331380 65046,6950.189,96.107,574.146,569.962,0.0
56814.0,STARLINK-6059,PAYLOAD,2024-07-31 14:32:21,14.98327918,0.0003065,70.0007,22.0534,269.6624,90.4184,1.328e-05,6.5e-07,0.0,0 STARLINK-6059,1 56814U 23078AZ  24213.60580537  .00000065  00000-0  13280-4 0  9999,2 56814  70.0007  22.0534 0003065 269.6624  90.4184 14.98327918 64890,6950.199,96.107,574.195,569.934,0.0
56814.0,STARLINK-6059,PAYLOAD,2024-07-31 20:56:53,14.9832888,0.0003095,70.0008,21.38,269.5331,90.5473,8.7627e-06,1.2e-07,0.0,0 STARLINK-6059,1 56814U 23078AZ  24213.87284528  .00000012  00000-0  87627-5 0  9998,2 56814  70.0008  21.3800 0003095 269.5331  90.5473 14.98328880 65191,6950.196,96.107,574.212,569.91,0.0
56814.0,STARLINK-6059,PAYLOAD,2024-08-01 11:22:05,14.98334577,0.0003288,70.0003,19.8647,270.0141,90.0641,5.3056e-05,5.4e-06,0.0,0 STARLINK-6059,1 56814U 23078AZ  24214.47367950  .00000540  00000-0  53056-4 0  9990,2 56814  70.0003  19.8647 0003288 270.0141  90.0641 14.98334577 65021,6950.179,96.107,574.329,569.759,0.0
56814.0,STARLINK-6059,PAYLOAD,2024-08-01 20:58:53,14.983406,0.0003188,70.0008,18.8552,272.0337,88.0456,0.00016531,1.881e-05,0.0,0 STARLINK-6059,1 56814U 23078AZ  24214.87423126  .00001881  00000-0  16531-3 0  9997,2 56814  70.0008  18.8552 0003188 272.0337  88.0456 14.98340600 65348,6950.16,96.106,574.241,569.809,0.0
56814.0,STARLINK-6059,PAYLOAD,2024-08-02 13:00:15,14.98324166,0.0003131,70.0008,17.1719,271.1686,88.9114,-1.4225e-05,-2.63e-06,0.0,0 STARLINK-6059,1 56814U 23078AZ  24215.54184759 -.00000263  00000-0 -14225-4 0  9992,2 56814  70.0008  17.1719 0003131 271.1686  88.9114 14.98324166 65440,6950.211,96.107,574.252,569.9,0.0
56814.0,STARLINK-6059,PAYLOAD,2024-08-02 14:36:23,14.98322578,0.0003185,70.0009,17.0033,271.7633,88.3161,-2.4604e-05,-3.87e-06,0.0,0 STARLINK-6059,1 56814U 23078AZ  24215.60860911 -.00000387  00000-0 -24604-4 0  9999,2 56814  70.0009  17.0033 0003185 271.7633  88.3161 14.98322578 65199,6950.216,96.107,574.294,569.867,0.0
56814.0,STARLINK-6059,PAYLOAD,2024-08-02 21:00:56,14.98324806,0.0003181,70.0009,16.3303,270.1237,89.9557,-5.6249e-06,-1.6e-06,0.0,0 STARLINK-6059,1 56814U 23078AZ  24215.87564823 -.00000160  00000-0 -56249-5 0  9991,2 56814  70.0009  16.3303 0003181 270.1237  89.9557 14.98324806 65237,6950.209,96.107,574.285,569.863,0.0
56814.0,STARLINK-6059,PAYLOAD,2024-08-03 11:26:07,14.9833657,0.0003246,70.0006,14.8154,269.2914,90.7873,7.2059e-06,-7e-08,0.0,0 STARLINK-6059,1 56814U 23078AZ  24216.47648067 -.00000007  00000-0  72059-5 0  9997,2 56814  70.0006  14.8154 0003246 269.2914  90.7873 14.98336570 65584,6950.173,96.107,574.294,569.782,0.0
56814.0,STARLINK-6059,PAYLOAD,2024-08-03 14:38:23,14.98340739,0.0003042,70.0016,14.4787,271.4419,88.6391,3.8153e-05,3.62e-06,0.0,0 STARLINK-6059,1 56814U 23078AZ  24216.60999727  .00000362  00000-0  38153-4 0  9993,2 56814  70.0016  14.4787 0003042 271.4419  88.6391 14.98340739 65349,6950.16,96.106,574.139,569.91,0.0
56814.0,STARLINK-6059,PAYLOAD,2024-08-03 21:02:55,14.98345755,0.0003073,70.0014,13.8056,270.4327,89.648,5.8176e-05,6.01e-06,0.0,0 STARLINK-6059,1 56814U 23078AZ  24216.87703183  .00000601  00000-0  58176-4 0  9994,2 56814  70.0014  13.8056 0003073 270.4327  89.6480 14.98345755 65646,6950.144,96.106,574.145,569.873,0.0
56814.0,STARLINK-6059,PAYLOAD,2024-08-04 13:04:17,14.98324021,0.0003059,70.0014,12.123,267.3229,92.758,8.6064e-05,9.34e-06,0.0,0 STARLINK-6059,1 56814U 23078AZ  24217.54464450  .00000934  00000-0  86064-4 0  9996,2 56814  70.0014  12.1230 0003059 267.3229  92.7580 14.98324021 65742,6950.211,96.107,574.202,569.95,0.0
56814.0,STARLINK-6059,PAYLOAD,2024-08-04 14:40:25,14.98325736,0.0003026,70.0015,11.9546,267.8691,92.2122,0.00010571,1.168e-05,0.0,0 STARLINK-6059,1 56814U 23078AZ  24217.61140325  .00001168  00000-0  10571-3 0  9995,2 56814  70.0015  11.9546 0003026 267.8691  92.2122 14.98325736 65495,6950.206,96.107,574.174,569.968,0.0
56814.0,STARLINK-6059,PAYLOAD,2024-08-04 19:28:48,14.98336332,0.0002961,70.0013,11.4497,267.2726,92.8094,0.00022039,2.538e-05,0.0,0 STARLINK-6059,1 56814U 23078AZ  24217.81167456  .00002538  00000-0  22039-3 0  9995,2 56814  70.0013  11.4497 0002961 267.2726  92.8094 14.98336332 65783,6950.173,96.107,574.096,569.98,0.0
